[
  {
    "OBJECT_NAME": "STARLINK-32653",
    "OBJECT_ID": "24229H",
    "EPOCH": "2025-11-11T02:24:36.108288",
    "MEAN_MOTION": 15.27675289,
    "ECCENTRICITY": 0.0001267,
    "INCLINATION": 43.0006,
    "RA_OF_ASC_NODE": 213.5691,
    "ARG_OF_PERICENTER": 228.4117,
    "MEAN_ANOMALY": 131.6626,
    "EPHEMERIS_TYPE": 0,
    "CLASSIFICATION_TYPE": "U",
    "NORAD_CAT_ID": 62199,
    "ELEMENT_SET_NO": 999,
    "REV_AT_EPOCH": 5250,
    "BSTAR": 0.0018561,
    "MEAN_MOTION_DOT": 0.00051319,
    "MEAN_MOTION_DDOT": 0.0,
    "TLE_LINE1": "1 62199U 24229H   25315.10041792  .00051319  00000+0  18561-2 0  9997",
    "TLE_LINE2": "2 62199  43.0006 213.5691 0001267 228.4117 131.6626 15.27675289 52509",
    "COMMENT": "Grouped by shell and plane from TLE"
  },
  {
    "OBJECT_NAME": "STARLINK-32667",
    "OBJECT_ID": "24229K",
    "EPOCH": "2025-11-11T08:00:03.000384",
    "MEAN_MOTION": 15.27579459,
    "ECCENTRICITY": 0.0001357,
    "INCLINATION": 43.001,
    "RA_OF_ASC_NODE": 218.7569,
    "ARG_OF_PERICENTER": 268.3308,
    "MEAN_ANOMALY": 130.5108,
    "EPHEMERIS_TYPE": 0,
    "CLASSIFICATION_TYPE": "U",
    "NORAD_CAT_ID": 62201,
    "ELEMENT_SET_NO": 999,
    "REV_AT_EPOCH": 573,
    "BSTAR": 0.00078052,
    "MEAN_MOTION_DOT": 0.00021278,
    "MEAN_MOTION_DDOT": 0.0,
    "TLE_LINE1": "1 62201U 24229K   25315.33336806  .00021278  00000+0  78052-3 0  9992",
    "TLE_LINE2": "2 62201  43.0010 218.7569 0001357 268.3308 130.5108 15.27579459  5732",
    "COMMENT": "Grouped by shell and plane from TLE"
  },
  {
    "OBJECT_NAME": "STARLINK-32430",
    "OBJECT_ID": "24229R",
    "EPOCH": "2025-11-11T02:33:11.625984",
    "MEAN_MOTION": 15.27628332,
    "ECCENTRICITY": 9.95e-05,
    "INCLINATION": 42.997,
    "RA_OF_ASC_NODE": 217.1271,
    "ARG_OF_PERICENTER": 245.0475,
    "MEAN_ANOMALY": 115.0273,
    "EPHEMERIS_TYPE": 0,
    "CLASSIFICATION_TYPE": "U",
    "NORAD_CAT_ID": 62207,
    "ELEMENT_SET_NO": 999,
    "REV_AT_EPOCH": 5246,
    "BSTAR": 0.0010702,
    "MEAN_MOTION_DOT": 0.00029348,
    "MEAN_MOTION_DDOT": 0.0,
    "TLE_LINE1": "1 62207U 24229R   25315.10638456  .00029348  00000+0  10702-2 0  9992",
    "TLE_LINE2": "2 62207  42.9970 217.1271 0000995 245.0475 115.0273 15.27628332 52466",
    "COMMENT": "Grouped by shell and plane from TLE"
  },
  {
    "OBJECT_NAME": "STARLINK-32642",
    "OBJECT_ID": "24229V",
    "EPOCH": "2025-11-11T03:24:05.279328",
    "MEAN_MOTION": 15.27619472,
    "ECCENTRICITY": 0.000121,
    "INCLINATION": 43.0026,
    "RA_OF_ASC_NODE": 219.9886,
    "ARG_OF_PERICENTER": 282.5326,
    "MEAN_ANOMALY": 77.5391,
    "EPHEMERIS_TYPE": 0,
    "CLASSIFICATION_TYPE": "U",
    "NORAD_CAT_ID": 62211,
    "ELEMENT_SET_NO": 999,
    "REV_AT_EPOCH": 5243,
    "BSTAR": 0.0014732999999999999,
    "MEAN_MOTION_DOT": 0.00040551,
    "MEAN_MOTION_DDOT": 0.0,
    "TLE_LINE1": "1 62211U 24229V   25315.14172777  .00040551  00000+0  14733-2 0  9997",
    "TLE_LINE2": "2 62211  43.0026 219.9886 0001210 282.5326  77.5391 15.27619472 52434",
    "COMMENT": "Grouped by shell and plane from TLE"
  },
  {
    "OBJECT_NAME": "STARLINK-32668",
    "OBJECT_ID": "24229W",
    "EPOCH": "2025-11-11T02:38:44.589120",
    "MEAN_MOTION": 15.27633421,
    "ECCENTRICITY": 0.0001298,
    "INCLINATION": 42.9973,
    "RA_OF_ASC_NODE": 217.1566,
    "ARG_OF_PERICENTER": 235.2215,
    "MEAN_ANOMALY": 124.8514,
    "EPHEMERIS_TYPE": 0,
    "CLASSIFICATION_TYPE": "U",
    "NORAD_CAT_ID": 62212,
    "ELEMENT_SET_NO": 999,
    "REV_AT_EPOCH": 5246,
    "BSTAR": 0.0012514,
    "MEAN_MOTION_DOT": 0.0003439,
    "MEAN_MOTION_DDOT": 0.0,
    "TLE_LINE1": "1 62212U 24229W   25315.11023830  .00034390  00000+0  12514-2 0  9999",
    "TLE_LINE2": "2 62212  42.9973 217.1566 0001298 235.2215 124.8514 15.27633421 52463",
    "COMMENT": "Grouped by shell and plane from TLE"
  },
  {
    "OBJECT_NAME": "STARLINK-32681",
    "OBJECT_ID": "25003V",
    "EPOCH": "2025-11-11T03:51:44.777088",
    "MEAN_MOTION": 15.27617971,
    "ECCENTRICITY": 0.0003406,
    "INCLINATION": 43.0004,
    "RA_OF_ASC_NODE": 219.8041,
    "ARG_OF_PERICENTER": 253.0327,
    "MEAN_ANOMALY": 107.0151,
    "EPHEMERIS_TYPE": 0,
    "CLASSIFICATION_TYPE": "U",
    "NORAD_CAT_ID": 62506,
    "ELEMENT_SET_NO": 999,
    "REV_AT_EPOCH": 4875,
    "BSTAR": 0.0013997,
    "MEAN_MOTION_DOT": 0.00038504,
    "MEAN_MOTION_DDOT": 0.0,
    "TLE_LINE1": "1 62506U 25003V   25315.16093492  .00038504  00000+0  13997-2 0  9999",
    "TLE_LINE2": "2 62506  43.0004 219.8041 0003406 253.0327 107.0151 15.27617971 48757",
    "COMMENT": "Grouped by shell and plane from TLE"
  },
  {
    "OBJECT_NAME": "STARLINK-33637",
    "OBJECT_ID": "25070L",
    "EPOCH": "2025-11-11T02:14:12.988032",
    "MEAN_MOTION": 15.27619728,
    "ECCENTRICITY": 5.03e-05,
    "INCLINATION": 42.9983,
    "RA_OF_ASC_NODE": 210.0041,
    "ARG_OF_PERICENTER": 286.7687,
    "MEAN_ANOMALY": 73.311,
    "EPHEMERIS_TYPE": 0,
    "CLASSIFICATION_TYPE": "U",
    "NORAD_CAT_ID": 63470,
    "ELEMENT_SET_NO": 999,
    "REV_AT_EPOCH": 3483,
    "BSTAR": 0.0010295,
    "MEAN_MOTION_DOT": 0.0002821,
    "MEAN_MOTION_DDOT": 0.0,
    "TLE_LINE1": "1 63470U 25070L   25315.09320588  .00028210  00000+0  10295-2 0  9996",
    "TLE_LINE2": "2 63470  42.9983 210.0041 0000503 286.7687  73.3110 15.27619728 34838",
    "COMMENT": "Grouped by shell and plane from TLE"
  },
  {
    "OBJECT_NAME": "STARLINK-32928",
    "OBJECT_ID": "25075S",
    "EPOCH": "2025-11-11T04:00:59.514336",
    "MEAN_MOTION": 15.27631055,
    "ECCENTRICITY": 9.15e-05,
    "INCLINATION": 42.9985,
    "RA_OF_ASC_NODE": 219.751,
    "ARG_OF_PERICENTER": 266.6837,
    "MEAN_ANOMALY": 93.391,
    "EPHEMERIS_TYPE": 0,
    "CLASSIFICATION_TYPE": "U",
    "NORAD_CAT_ID": 63564,
    "ELEMENT_SET_NO": 999,
    "REV_AT_EPOCH": 3381,
    "BSTAR": 0.0011341,
    "MEAN_MOTION_DOT": 0.00031128,
    "MEAN_MOTION_DDOT": 0.0,
    "TLE_LINE1": "1 63564U 25075S   25315.16735549  .00031128  00000+0  11341-2 0  9995",
    "TLE_LINE2": "2 63564  42.9985 219.7510 0000915 266.6837  93.3910 15.27631055 33816",
    "COMMENT": "Grouped by shell and plane from TLE"
  },
  {
    "OBJECT_NAME": "STARLINK-34178",
    "OBJECT_ID": "25110A",
    "EPOCH": "2025-11-11T08:00:03.000384",
    "MEAN_MOTION": 15.30177904,
    "ECCENTRICITY": 0.000127,
    "INCLINATION": 53.1567,
    "RA_OF_ASC_NODE": 216.7408,
    "ARG_OF_PERICENTER": 92.1848,
    "MEAN_ANOMALY": 81.6935,
    "EPHEMERIS_TYPE": 0,
    "CLASSIFICATION_TYPE": "U",
    "NORAD_CAT_ID": 64096,
    "ELEMENT_SET_NO": 999,
    "REV_AT_EPOCH": 586,
    "BSTAR": 8.584e-05,
    "MEAN_MOTION_DOT": 2.182e-05,
    "MEAN_MOTION_DDOT": 0.0,
    "TLE_LINE1": "1 64096U 25110A   25315.33336806  .00002182  00000+0  85840-4 0  9993",
    "TLE_LINE2": "2 64096  53.1567 216.7408 0001270  92.1848  81.6935 15.30177904  5862",
    "COMMENT": "Grouped by shell and plane from TLE"
  },
  {
    "OBJECT_NAME": "STARLINK-34174",
    "OBJECT_ID": "25110B",
    "EPOCH": "2025-11-11T05:31:29.915040",
    "MEAN_MOTION": 15.30297925,
    "ECCENTRICITY": 0.0002005,
    "INCLINATION": 53.1583,
    "RA_OF_ASC_NODE": 217.1565,
    "ARG_OF_PERICENTER": 80.8993,
    "MEAN_ANOMALY": 279.2235,
    "EPHEMERIS_TYPE": 0,
    "CLASSIFICATION_TYPE": "U",
    "NORAD_CAT_ID": 64097,
    "ELEMENT_SET_NO": 999,
    "REV_AT_EPOCH": 2774,
    "BSTAR": 0.0,
    "MEAN_MOTION_DOT": -0.00081529,
    "MEAN_MOTION_DDOT": 0.0,
    "TLE_LINE1": "1 64097U 25110B   25315.23020735 -.00081529  00000+0 -27621-2 0  9999",
    "TLE_LINE2": "2 64097  53.1583 217.1565 0002005  80.8993 279.2235 15.30297925 27747",
    "COMMENT": "Grouped by shell and plane from TLE"
  },
  {
    "OBJECT_NAME": "STARLINK-34146",
    "OBJECT_ID": "25110C",
    "EPOCH": "2025-11-11T05:22:24.906432",
    "MEAN_MOTION": 15.30810269,
    "ECCENTRICITY": 0.0001349,
    "INCLINATION": 53.1592,
    "RA_OF_ASC_NODE": 217.1166,
    "ARG_OF_PERICENTER": 93.3634,
    "MEAN_ANOMALY": 266.7521,
    "EPHEMERIS_TYPE": 0,
    "CLASSIFICATION_TYPE": "U",
    "NORAD_CAT_ID": 64098,
    "ELEMENT_SET_NO": 999,
    "REV_AT_EPOCH": 2774,
    "BSTAR": 0.0,
    "MEAN_MOTION_DOT": -0.00289247,
    "MEAN_MOTION_DDOT": 0.0,
    "TLE_LINE1": "1 64098U 25110C   25315.22389938 -.00289247  00000+0 -99463-2 0  9992",
    "TLE_LINE2": "2 64098  53.1592 217.1166 0001349  93.3634 266.7521 15.30810269 27747",
    "COMMENT": "Grouped by shell and plane from TLE"
  },
  {
    "OBJECT_NAME": "STARLINK-34074",
    "OBJECT_ID": "25110D",
    "EPOCH": "2025-11-11T04:14:08.528640",
    "MEAN_MOTION": 15.30234127,
    "ECCENTRICITY": 0.0001029,
    "INCLINATION": 53.1576,
    "RA_OF_ASC_NODE": 217.5317,
    "ARG_OF_PERICENTER": 70.7244,
    "MEAN_ANOMALY": 289.3868,
    "EPHEMERIS_TYPE": 0,
    "CLASSIFICATION_TYPE": "U",
    "NORAD_CAT_ID": 64099,
    "ELEMENT_SET_NO": 999,
    "REV_AT_EPOCH": 2773,
    "BSTAR": 0.0014728,
    "MEAN_MOTION_DOT": 0.00043562,
    "MEAN_MOTION_DDOT": 0.0,
    "TLE_LINE1": "1 64099U 25110D   25315.17648760  .00043562  00000+0  14728-2 0  9995",
    "TLE_LINE2": "2 64099  53.1576 217.5317 0001029  70.7244 289.3868 15.30234127 27730",
    "COMMENT": "Grouped by shell and plane from TLE"
  },
  {
    "OBJECT_NAME": "STARLINK-34082",
    "OBJECT_ID": "25110E",
    "EPOCH": "2025-11-11T08:00:03.000384",
    "MEAN_MOTION": 15.30182379,
    "ECCENTRICITY": 0.0001487,
    "INCLINATION": 53.1579,
    "RA_OF_ASC_NODE": 216.781,
    "ARG_OF_PERICENTER": 103.3045,
    "MEAN_ANOMALY": 53.1154,
    "EPHEMERIS_TYPE": 0,
    "CLASSIFICATION_TYPE": "U",
    "NORAD_CAT_ID": 64100,
    "ELEMENT_SET_NO": 999,
    "REV_AT_EPOCH": 591,
    "BSTAR": 0.00012688,
    "MEAN_MOTION_DOT": 3.398e-05,
    "MEAN_MOTION_DDOT": 0.0,
    "TLE_LINE1": "1 64100U 25110E   25315.33336806  .00003398  00000+0  12688-3 0  9998",
    "TLE_LINE2": "2 64100  53.1579 216.7810 0001487 103.3045  53.1154 15.30182379  5917",
    "COMMENT": "Grouped by shell and plane from TLE"
  }
]